CCSDS_OMM_VERS = 2.0
CREATION_DATE  = 
ORIGINATOR     = 

OBJECT_NAME    = SHIJIAN-16 (SJ-16)
OBJECT_ID      = 2013-057A
CENTER_NAME    = EARTH
REF_FRAME      = TEME
TIME_SYSTEM    = UTC
MEAN_ELEMENT_THEORY = SGP/SGP4

EPOCH          = 2025-12-01T20:57:36.876672
MEAN_MOTION    = 14.91942008
ECCENTRICITY   = .0017319
INCLINATION    = 74.9740
RA_OF_ASC_NODE = 10.2147
ARG_OF_PERICENTER = 345.4656
MEAN_ANOMALY   = 14.6031

EPHEMERIS_TYPE = 0
CLASSIFICATION_TYPE = U
NORAD_CAT_ID   = 39358
ELEMENT_SET_NO = 999
REV_AT_EPOCH   = 65691
BSTAR          = .18733E-3
MEAN_MOTION_DOT = .1873E-4
MEAN_MOTION_DDOT = 0

CCSDS_OMM_VERS = 2.0
CREATION_DATE  = 
ORIGINATOR     = 

OBJECT_NAME    = SL-4 R/B
OBJECT_ID      = 2014-021B
CENTER_NAME    = EARTH
REF_FRAME      = TEME
TIME_SYSTEM    = UTC
MEAN_ELEMENT_THEORY = SGP/SGP4

EPOCH          = 2025-12-01T14:58:14.672352
MEAN_MOTION    = 15.36235478
ECCENTRICITY   = .0102777
INCLINATION    = 51.6063
RA_OF_ASC_NODE = 94.5995
ARG_OF_PERICENTER = 106.2496
MEAN_ANOMALY   = 254.9823

EPHEMERIS_TYPE = 0
CLASSIFICATION_TYPE = U
NORAD_CAT_ID   = 39679
ELEMENT_SET_NO = 999
REV_AT_EPOCH   = 64118
BSTAR          = .3711E-3
MEAN_MOTION_DOT = .15475E-3
MEAN_MOTION_DDOT = 0

CCSDS_OMM_VERS = 2.0
CREATION_DATE  = 
ORIGINATOR     = 

OBJECT_NAME    = ALOS-2
OBJECT_ID      = 2014-029A
CENTER_NAME    = EARTH
REF_FRAME      = TEME
TIME_SYSTEM    = UTC
MEAN_ELEMENT_THEORY = SGP/SGP4

EPOCH          = 2025-12-01T20:29:51.889056
MEAN_MOTION    = 14.79504813
ECCENTRICITY   = .0001375
INCLINATION    = 97.9233
RA_OF_ASC_NODE = 70.8552
ARG_OF_PERICENTER = 99.0861
MEAN_ANOMALY   = 261.0506

EPHEMERIS_TYPE = 0
CLASSIFICATION_TYPE = U
NORAD_CAT_ID   = 39766
ELEMENT_SET_NO = 999
REV_AT_EPOCH   = 62240
BSTAR          = .29911E-3
MEAN_MOTION_DOT = .2185E-4
MEAN_MOTION_DDOT = 0

CCSDS_OMM_VERS = 2.0
CREATION_DATE  = 
ORIGINATOR     = 

OBJECT_NAME    = YAOGAN-29
OBJECT_ID      = 2015-069A
CENTER_NAME    = EARTH
REF_FRAME      = TEME
TIME_SYSTEM    = UTC
MEAN_ELEMENT_THEORY = SGP/SGP4

EPOCH          = 2025-12-01T21:19:02.767872
MEAN_MOTION    = 14.82862445
ECCENTRICITY   = .0000875
INCLINATION    = 98.0230
RA_OF_ASC_NODE = 359.0246
ARG_OF_PERICENTER = 11.6665
MEAN_ANOMALY   = 348.4568

EPHEMERIS_TYPE = 0
CLASSIFICATION_TYPE = U
NORAD_CAT_ID   = 41038
ELEMENT_SET_NO = 999
REV_AT_EPOCH   = 54138
BSTAR          = .72946E-4
MEAN_MOTION_DOT = .537E-5
MEAN_MOTION_DDOT = 0

CCSDS_OMM_VERS = 2.0
CREATION_DATE  = 
ORIGINATOR     = 

OBJECT_NAME    = ASTRO-H (HITOMI)
OBJECT_ID      = 2016-012A
CENTER_NAME    = EARTH
REF_FRAME      = TEME
TIME_SYSTEM    = UTC
MEAN_ELEMENT_THEORY = SGP/SGP4

EPOCH          = 2025-12-01T12:19:34.365216
MEAN_MOTION    = 15.09238208
ECCENTRICITY   = .0009484
INCLINATION    = 31.0002
RA_OF_ASC_NODE = 269.7387
ARG_OF_PERICENTER = 64.3119
MEAN_ANOMALY   = 295.8497

EPHEMERIS_TYPE = 0
CLASSIFICATION_TYPE = U
NORAD_CAT_ID   = 41337
ELEMENT_SET_NO = 999
REV_AT_EPOCH   = 53738
BSTAR          = .22108E-3
MEAN_MOTION_DOT = .3701E-4
MEAN_MOTION_DDOT = 0

CCSDS_OMM_VERS = 2.0
CREATION_DATE  = 
ORIGINATOR     = 

OBJECT_NAME    = HXMT (HUIYAN)
OBJECT_ID      = 2017-034A
CENTER_NAME    = EARTH
REF_FRAME      = TEME
TIME_SYSTEM    = UTC
MEAN_ELEMENT_THEORY = SGP/SGP4

EPOCH          = 2025-12-01T20:31:01.973280
MEAN_MOTION    = 15.16104633
ECCENTRICITY   = .0033137
INCLINATION    = 43.0132
RA_OF_ASC_NODE = 200.0265
ARG_OF_PERICENTER = 334.0975
MEAN_ANOMALY   = 25.8213

EPHEMERIS_TYPE = 0
CLASSIFICATION_TYPE = U
NORAD_CAT_ID   = 42758
ELEMENT_SET_NO = 999
REV_AT_EPOCH   = 46768
BSTAR          = .27076E-3
MEAN_MOTION_DOT = .5146E-4
MEAN_MOTION_DDOT = 0

CCSDS_OMM_VERS = 2.0
CREATION_DATE  = 
ORIGINATOR     = 

OBJECT_NAME    = CZ-2C R/B
OBJECT_ID      = 2018-054D
CENTER_NAME    = EARTH
REF_FRAME      = TEME
TIME_SYSTEM    = UTC
MEAN_ELEMENT_THEORY = SGP/SGP4

EPOCH          = 2025-12-01T11:58:44.591808
MEAN_MOTION    = 15.71314062
ECCENTRICITY   = .0018269
INCLINATION    = 35.1344
RA_OF_ASC_NODE = 256.9690
ARG_OF_PERICENTER = 25.7041
MEAN_ANOMALY   = 334.4596

EPHEMERIS_TYPE = 0
CLASSIFICATION_TYPE = U
NORAD_CAT_ID   = 43521
ELEMENT_SET_NO = 999
REV_AT_EPOCH   = 41328
BSTAR          = .76788E-3
MEAN_MOTION_DOT = .103386E-2
MEAN_MOTION_DDOT = 0

CCSDS_OMM_VERS = 2.0
CREATION_DATE  = 
ORIGINATOR     = 

OBJECT_NAME    = SAOCOM 1A
OBJECT_ID      = 2018-076A
CENTER_NAME    = EARTH
REF_FRAME      = TEME
TIME_SYSTEM    = UTC
MEAN_ELEMENT_THEORY = SGP/SGP4

EPOCH          = 2025-12-01T19:15:54.021312
MEAN_MOTION    = 14.82157485
ECCENTRICITY   = .0001578
INCLINATION    = 97.8848
RA_OF_ASC_NODE = 160.3841
ARG_OF_PERICENTER = 87.4699
MEAN_ANOMALY   = 272.6695

EPHEMERIS_TYPE = 0
CLASSIFICATION_TYPE = U
NORAD_CAT_ID   = 43641
ELEMENT_SET_NO = 999
REV_AT_EPOCH   = 38686
BSTAR          = .77654E-4
MEAN_MOTION_DOT = .566E-5
MEAN_MOTION_DDOT = 0

CCSDS_OMM_VERS = 2.0
CREATION_DATE  = 
ORIGINATOR     = 

OBJECT_NAME    = H-2A R/B
OBJECT_ID      = 2018-084L
CENTER_NAME    = EARTH
REF_FRAME      = TEME
TIME_SYSTEM    = UTC
MEAN_ELEMENT_THEORY = SGP/SGP4

EPOCH          = 2025-12-01T19:42:10.226016
MEAN_MOTION    = 15.36779561
ECCENTRICITY   = .0028214
INCLINATION    = 98.8782
RA_OF_ASC_NODE = 167.6414
ARG_OF_PERICENTER = 3.8455
MEAN_ANOMALY   = 356.2996

EPHEMERIS_TYPE = 0
CLASSIFICATION_TYPE = U
NORAD_CAT_ID   = 43682
ELEMENT_SET_NO = 999
REV_AT_EPOCH   = 39072
BSTAR          = .54388E-3
MEAN_MOTION_DOT = .19728E-3
MEAN_MOTION_DDOT = 0

CCSDS_OMM_VERS = 2.0
CREATION_DATE  = 
ORIGINATOR     = 

OBJECT_NAME    = SAOCOM 1B
OBJECT_ID      = 2020-059A
CENTER_NAME    = EARTH
REF_FRAME      = TEME
TIME_SYSTEM    = UTC
MEAN_ELEMENT_THEORY = SGP/SGP4

EPOCH          = 2025-12-01T20:00:51.613344
MEAN_MOTION    = 14.82166239
ECCENTRICITY   = .0001354
INCLINATION    = 97.8843
RA_OF_ASC_NODE = 159.5160
ARG_OF_PERICENTER = 90.4505
MEAN_ANOMALY   = 269.6863

EPHEMERIS_TYPE = 0
CLASSIFICATION_TYPE = U
NORAD_CAT_ID   = 46265
ELEMENT_SET_NO = 999
REV_AT_EPOCH   = 28425
BSTAR          = .81271E-4
MEAN_MOTION_DOT = .595E-5
MEAN_MOTION_DDOT = 0

CCSDS_OMM_VERS = 2.0
CREATION_DATE  = 
ORIGINATOR     = 

OBJECT_NAME    = CSS (TIANHE)
OBJECT_ID      = 2021-035A
CENTER_NAME    = EARTH
REF_FRAME      = TEME
TIME_SYSTEM    = UTC
MEAN_ELEMENT_THEORY = SGP/SGP4

EPOCH          = 2025-12-01T18:13:10.256736
MEAN_MOTION    = 15.58488016
ECCENTRICITY   = .0010393
INCLINATION    = 41.4670
RA_OF_ASC_NODE = 83.3356
ARG_OF_PERICENTER = 308.8624
MEAN_ANOMALY   = 51.1286

EPHEMERIS_TYPE = 0
CLASSIFICATION_TYPE = U
NORAD_CAT_ID   = 48274
ELEMENT_SET_NO = 999
REV_AT_EPOCH   = 26231
BSTAR          = .25988E-3
MEAN_MOTION_DOT = .20172E-3
MEAN_MOTION_DDOT = 0

CCSDS_OMM_VERS = 2.0
CREATION_DATE  = 
ORIGINATOR     = 

OBJECT_NAME    = COSMOS 2550
OBJECT_ID      = 2021-056A
CENTER_NAME    = EARTH
REF_FRAME      = TEME
TIME_SYSTEM    = UTC
MEAN_ELEMENT_THEORY = SGP/SGP4

EPOCH          = 2025-11-29T19:33:31.970304
MEAN_MOTION    = 15.33825458
ECCENTRICITY   = .00083936
INCLINATION    = 67.1430
RA_OF_ASC_NODE = 343.0291
ARG_OF_PERICENTER = 269.4513
MEAN_ANOMALY   = 90.5680

EPHEMERIS_TYPE = 0
CLASSIFICATION_TYPE = U
NORAD_CAT_ID   = 48865
ELEMENT_SET_NO = 999
REV_AT_EPOCH   = 24814
BSTAR          = .1467811E-5
MEAN_MOTION_DOT = -.143E-5
MEAN_MOTION_DDOT = 0

