SHIJIAN-16 (SJ-16)      
1 39358U 13057A   25335.87334348  .00001873  00000+0  18733-3 0  9995
2 39358  74.9740  10.2147 0017319 345.4656  14.6031 14.91942008656910
SL-4 R/B                
1 39679U 14021B   25335.62378093  .00015475  00000+0  37110-3 0  9994
2 39679  51.6063  94.5995 0102777 106.2496 254.9823 15.36235478641187
ALOS-2                  
1 39766U 14029A   25335.85407279  .00002185  00000+0  29911-3 0  9997
2 39766  97.9233  70.8552 0001375  99.0861 261.0506 14.79504813622408
YAOGAN-29               
1 41038U 15069A   25335.88822648  .00000537  00000+0  72946-4 0  9997
2 41038  98.0230 359.0246 0000875  11.6665 348.4568 14.82862445541387
ASTRO-H (HITOMI)        
1 41337U 16012A   25335.51359219  .00003701  00000+0  22108-3 0  9997
2 41337  31.0002 269.7387 0009484  64.3119 295.8497 15.09238208537385
HXMT (HUIYAN)           
1 42758U 17034A   25335.85488395  .00005146  00000+0  27076-3 0  9999
2 42758  43.0132 200.0265 0033137 334.0975  25.8213 15.16104633467686
CZ-2C R/B               
1 43521U 18054D   25335.49912722  .00103386  00000+0  76788-3 0  9996
2 43521  35.1344 256.9690 0018269  25.7041 334.4596 15.71314062413281
SAOCOM 1A               
1 43641U 18076A   25335.80270858  .00000566  00000+0  77654-4 0  9995
2 43641  97.8848 160.3841 0001578  87.4699 272.6695 14.82157485386864
H-2A R/B                
1 43682U 18084L   25335.82095169  .00019728  00000+0  54388-3 0  9999
2 43682  98.8782 167.6414 0028214   3.8455 356.2996 15.36779561390729
SAOCOM 1B               
1 46265U 20059A   25335.83393071  .00000595  00000+0  81271-4 0  9992
2 46265  97.8843 159.5160 0001354  90.4505 269.6863 14.82166239284250
CSS (TIANHE)            
1 48274U 21035A   25335.75914649  .00020172  00000+0  25988-3 0  9995
2 48274  41.4670  83.3356 0010393 308.8624  51.1286 15.58488016262317
COSMOS 2550             
1 48865U 21056A   25333.81495336 -.00000143  00000+0  14678-5 0  9999
2 48865  67.1430 343.0291 0008393 269.4513  90.5680 15.33825458248140
